APRIZESAT 2             
1 28366U 04025A   26167.03227464  .00000128  00000+0  53109-4 0  9998
2 28366  98.1013 333.0780 0104317 253.3772 105.5942 14.38035399151477
SAUDICOMSAT 1           
1 28369U 04025D   26166.98505362  .00000323  00000+0  85012-4 0  9995
2 28369  98.5771 177.0841 0032731  29.2539 331.0481 14.55472972163951
SAUDICOMSAT 2           
1 28370U 04025E   26167.29703372  .00000204  00000+0  64490-4 0  9998
2 28370  98.6641 179.5181 0054158 262.2517  97.2525 14.49980806159976
APRIZESAT 1             
1 28372U 04025G   26167.26087954  .00000190  00000+0  58823-4 0  9995
2 28372  98.6303 177.9613 0045046 156.6272 203.6984 14.51776589161772
NANOSAT-1               
1 28493U 04049B   26167.29027963  .00000862  00000+0  12089-3 0  9991
2 28493  98.2275 303.9293 0002865 306.6956  53.3992 14.80158124155316
SAUDICOMSAT 7           
1 31119U 07012C   26166.88429491  .00000358  00000+0  73380-4 0  9991
2 31119  98.3778 140.9894 0055197 199.3194 160.5917 14.66109160 22240
SAUDICOMSAT 6           
1 31121U 07012E   26166.85884014  .00000506  00000+0  10645-3 0  9996
2 31121  98.4098 134.3505 0071146 331.9466  27.7909 14.62556968 19994
SAUDICOMSAT 5           
1 31124U 07012H   26167.20033084  .00000513  00000+0  96752-4 0  9994
2 31124  98.3489 142.0591 0048419 127.7377 232.8230 14.68155275 23454
SAUDICOMSAT 3           
1 31125U 07012J   26167.16261770  .00000737  00000+0  12815-3 0  9990
2 31125  98.3144 142.5690 0040284  56.3821 304.1219 14.70704352 24675
SAUDICOMSAT 4           
1 31127U 07012L   26167.19813034  .00000379  00000+0  79581-4 0  9997
2 31127  98.3983 139.7484 0062057 261.3780  98.0387 14.64511444 21146
APRIZESAT 4             
1 35684U 09041D   26167.17813914  .00000579  00000+0  75794-4 0  9992
2 35684  98.1413 242.4785 0042465 326.3943  33.4578 14.83878253911210
APRIZESAT 3             
1 35686U 09041F   26167.22959799  .00001520  00000+0  13532-3 0  9990
2 35686  98.2059 320.4075 0062776  70.8400 289.9601 14.96238642916232
S-NET D                 
1 43186U 18014G   26167.27431769  .00004534  00000+0  23493-3 0  9996
2 43186  97.5367  72.0710 0009029  33.3736 326.8064 15.16666614458629
S-NET B                 
1 43187U 18014H   26167.28575302  .00004536  00000+0  23520-3 0  9993
2 43187  97.5373  72.0691 0009526  28.1461 332.0285 15.16636172458624
S-NET A                 
1 43188U 18014J   26167.27320021  .00004490  00000+0  23258-3 0  9996
2 43188  97.5383  72.2651 0009447  28.8165 331.3588 15.16674530458622
S-NET C                 
1 43189U 18014K   26167.28962437  .00004493  00000+0  23296-3 0  9996
2 43189  97.5399  72.3558 0010559  20.6348 339.5309 15.16628083457178
SALSAT                  
1 46495U 20068K   26166.96813813  .00006820  00000+0  23912-3 0  9999
2 46495  97.8844 169.9584 0008114 313.3675  46.6887 15.29785416315178
OOV-CUBE (TUBSAT-30)    
1 60240U 24128F   26167.32354354  .00001579  00000+0  13083-3 0  9999
2 60240  61.9943 228.5853 0044694 133.5156 226.9663 15.02771261105989
LPNTSAT-001 (IOD-1)     
1 68408U 26065A   26167.15423894  .00002456  00000+0  12182-3 0  9996
2 68408  97.4017  47.6861 0016768  14.3987 345.7722 15.18533629 12105
